NIMIQ 4                 
1 33373U 08044A   26170.52024870  .00000000  00000+0  00000+0 0  9997
2 33373   0.0390  53.6401 0002076  36.1478 283.2799  1.00267138 65005
GALAXY 19 (G-19)        
1 33376U 08045A   26170.51730203 -.00000145  00000+0  00000+0 0  9995
2 33376   0.0302 263.5782 0002572 190.3596 263.0335  1.00271208 64925
ASTRA 1M                
1 33436U 08057A   26170.54018213  .00000115  00000+0  00000+0 0  9994
2 33436   0.3036  82.5042 0004845  25.6770  13.4124  1.00272914 45765
EUTELSAT HOTBIRD 13C    
1 33459U 08065A   26170.52657541 -.00000289  00000+0  00000+0 0  9992
2 33459   2.9573  79.1654 0003415   8.7819 319.0662  1.00270168 47362
EXPRESS-AM44            
1 33595U 09007A   26170.60560529 -.00000096  00000+0  00000+0 0  9994
2 33595   3.4707  78.3646 0003815   2.3880  34.0776  1.00270993 52319
NSS-9                   
1 33749U 09008A   26170.51989244  .00000065  00000+0  00000+0 0  9990
2 33749   1.2688  82.6367 0002039 347.4337 207.8905  1.00271093 63542
TELSTAR 11N             
1 34111U 09009A   26170.38644921 -.00000257  00000+0  00000+0 0  9994
2 34111   0.0270  70.1862 0002279  20.9775 277.9966  1.00269993 46268
WGS F2 (USA 204)        
1 34713U 09017A   26170.54789550  .00000062  00000+0  00000+0 0  9990
2 34713   0.0185   9.7146 0000115 272.4423 240.3585  1.00271766 45648
SES-7 (PROTOSTAR 2)     
1 34941U 09027A   26170.55798131 -.00000351  00000+0  00000+0 0  9992
2 34941   0.0443  70.4314 0000512 279.1122 227.3571  1.00270759 62652
MEASAT-3A               
1 35362U 09032A   26170.50253336 -.00000116  00000+0  00000+0 0  9993
2 35362   0.0221   4.6695 0002948  76.3831 167.5957  1.00271865  8050
GOES 14                 
1 35491U 09033A   26170.54574402 -.00000306  00000+0  00000+0 0  9992
2 35491   1.6972  83.0156 0001874  12.8985 148.7848  1.00110252  6610
FM-5                    
1 35493U 09034A   26170.16296111 -.00000206  00000+0  00000+0 0  9990
2 35493   0.0191 295.6892 0000683   7.2084 296.9935  1.00267719 46664
TERRESTAR-1             
1 35496U 09035A   26170.40253045 -.00000064  00000+0  00000+0 0  9992
2 35496   5.1777  48.7986 0002663  33.1630 219.5655  1.00272731 62151
ASIASAT 5               
1 35696U 09042A   26170.62773422  .00000000  00000+0  00000+0 0  9991
2 35696   0.0303  50.7384 0001563  37.1761 146.4840  1.00266096 61738
JCSAT-12 (JCSAT-RA)     
1 35755U 09044A   26170.60123899 -.00000333  00000+0  00000+0 0  9994
2 35755   0.0096 345.2064 0000508 319.0662 312.0390  1.00275526 61638
OPTUS D3                
1 35756U 09044B   26169.92585219 -.00000152  00000+0  00000+0 0  9995
2 35756   0.8746 268.9338 0002577 175.8548 311.8101  1.00270968 61589
NIMIQ 5                 
1 35873U 09050A   26170.09435881  .00000000  00000+0  00000+0 0  9992
2 35873   0.0197   4.6168 0002832  81.7376 142.2406  1.00267319 61361
AMAZONAS 2              
1 35942U 09054A   26170.52224205 -.00000266  00000+0  00000+0 0  9992
2 35942   1.8227  83.0197 0003178   6.8284 293.9074  1.00272659 61205
COMSATBW-1              
1 35943U 09054B   26170.54902216  .00000019  00000+0  00000+0 0  9995
2 35943   0.0529 159.8530 0002806 286.1358  82.4752  1.00269002 61333
NSS-12                  
1 36032U 09058A   26170.54780883  .00000065  00000+0  00000+0 0  9994
2 36032   0.0918 275.0174 0005056 143.0691 103.8871  1.00272748 60948
THOR 6                  
1 36033U 09058B   26170.25119439 -.00000016  00000+0  00000+0 0  9993
2 36033   0.0242  99.0120 0001633 345.8921 272.1597  1.00271520 61021
INTELSAT 14 (IS-14)     
1 36097U 09064A   26170.17116175 -.00000280  00000+0  00000+0 0  9998
2 36097   0.0124 321.8072 0002337 124.6896 197.5268  1.00271821 60622
EUTELSAT 36B            
1 36101U 09065A   26170.54650882  .00000106  00000+0  00000+0 0  9990
2 36101   0.4979  81.1357 0005504   5.0932  68.7818  1.00269089 60739
INTELSAT 15 (IS-15)     
1 36106U 09067A   26170.12566527 -.00000191  00000+0  00000+0 0  9998
2 36106   0.0159 340.9265 0002135 107.1363 309.6753  1.00272203 41245
WGS F3 (USA 211)        
1 36108U 09068A   26169.65524434  .00000058  00000+0  00000+0 0  9999
2 36108   0.3242  85.6919 0000257 251.5107  35.5777  1.00270012 46607
DIRECTV 12              
1 36131U 09075A   26169.66070437 -.00000110  00000+0  00000+0 0  9993
2 36131   0.0434 170.9001 0000385 299.0990 292.0273  1.00272181 46567
BEIDOU-2 G1             
1 36287U 10001A   26170.63559859 -.00000287  00000+0  00000+0 0  9990
2 36287   4.3000  60.4072 0002241 297.2013 279.5187  1.00269410 60195
SDO                     
1 36395U 10005A   26168.41002763 -.00000096  00000+0  00000+0 0  9992
2 36395  34.6527  86.3378 0001734  44.0102 180.8312  1.00269958 60061
INTELSAT 16 (IS-16)     
1 36397U 10006A   26170.24252053 -.00000251  00000+0  00000+0 0  9991
2 36397   0.0097 336.1585 0001969 125.2068 177.2051  1.00272329 59672
EWS-G2 (GOES 15)        
1 36411U 10008A   26170.54910883  .00000014  00000+0  00000+0 0  9991
2 36411   1.2850  82.8099 0004891  42.1965  44.1162  1.00266562 59660
ECHOSTAR 14             
1 36499U 10010A   26170.48239339 -.00000006  00000+0  00000+0 0  9995
2 36499   0.0173  26.0367 0002429  71.8335 224.6016  1.00270862 46571
SES-1                   
1 36516U 10016A   26170.51652201 -.00000120  00000+0  00000+0 0  9999
2 36516   0.0292 300.1558 0002656 144.3787 268.1470  1.00270874 59057
