OBJECT_NAME,OBJECT_ID,EPOCH,MEAN_MOTION,ECCENTRICITY,INCLINATION,RA_OF_ASC_NODE,ARG_OF_PERICENTER,MEAN_ANOMALY,EPHEMERIS_TYPE,CLASSIFICATION_TYPE,NORAD_CAT_ID,ELEMENT_SET_NO,REV_AT_EPOCH,BSTAR,MEAN_MOTION_DOT,MEAN_MOTION_DDOT
NIMIQ 4,2008-044A,2026-06-19T12:29:09.487680,1.00267138,.00020761,0.0390,53.6401,36.1478,283.2799,0,U,33373,999,6500,0,0,0
GALAXY 19 (G-19),2008-045A,2026-06-19T12:24:54.895392,1.00271208,.00025726,0.0302,263.5782,190.3596,263.0335,0,U,33376,999,6492,0,-.145E-5,0
ASTRA 1M,2008-057A,2026-06-19T12:57:51.736032,1.00272914,.00048458,0.3036,82.5042,25.6770,13.4124,0,U,33436,999,4576,0,.115E-5,0
EUTELSAT HOTBIRD 13C,2008-065A,2026-06-19T12:38:16.115424,1.00270168,.00034158,2.9573,79.1654,8.7819,319.0662,0,U,33459,999,4736,0,-.289E-5,0
EXPRESS-AM44,2009-007A,2026-06-19T14:32:04.297056,1.00270993,.00038157,3.4707,78.3646,2.3880,34.0776,0,U,33595,999,5231,0,-.96E-6,0
NSS-9,2009-008A,2026-06-19T12:28:38.706816,1.00271093,.00020394,1.2688,82.6367,347.4337,207.8905,0,U,33749,999,6354,0,.65E-6,0
TELSTAR 11N,2009-009A,2026-06-19T09:16:29.211744,1.00269993,.00022796,0.0270,70.1862,20.9775,277.9966,0,U,34111,999,4626,0,-.257E-5,0
WGS F2 (USA 204),2009-017A,2026-06-19T13:08:58.171200,1.00271766,.00001154,0.0185,9.7146,272.4423,240.3585,0,U,34713,999,4564,0,.62E-6,0
SES-7 (PROTOSTAR 2),2009-027A,2026-06-19T13:23:29.585184,1.00270759,.00005123,0.0443,70.4314,279.1122,227.3571,0,U,34941,999,6265,0,-.351E-5,0
MEASAT-3A,2009-032A,2026-06-19T12:03:38.882304,1.00271865,.0002948,0.0221,4.6695,76.3831,167.5957,0,U,35362,999,805,0,-.116E-5,0
GOES 14,2009-033A,2026-06-19T13:05:52.283328,1.00110252,.00018749,1.6972,83.0156,12.8985,148.7848,0,U,35491,999,661,0,-.306E-5,0
FM-5,2009-034A,2026-06-19T03:54:39.839904,1.00267719,.00006838,0.0191,295.6892,7.2084,296.9935,0,U,35493,999,4666,0,-.206E-5,0
TERRESTAR-1,2009-035A,2026-06-19T09:39:38.630880,1.00272731,.00026635,5.1777,48.7986,33.1630,219.5655,0,U,35496,999,6215,0,-.64E-6,0
ASIASAT 5,2009-042A,2026-06-19T15:03:56.236608,1.00266096,.00015631,0.0303,50.7384,37.1761,146.4840,0,U,35696,999,6173,0,0,0
JCSAT-12 (JCSAT-RA),2009-044A,2026-06-19T14:25:47.048736,1.00275526,.00005088,0.0096,345.2064,319.0662,312.0390,0,U,35755,999,6163,0,-.333E-5,0
OPTUS D3,2009-044B,2026-06-18T22:13:13.629216,1.00270968,.00025777,0.8746,268.9338,175.8548,311.8101,0,U,35756,999,6158,0,-.152E-5,0
NIMIQ 5,2009-050A,2026-06-19T02:15:52.601184,1.00267319,.00028323,0.0197,4.6168,81.7376,142.2406,0,U,35873,999,6136,0,0,0
AMAZONAS 2,2009-054A,2026-06-19T12:32:01.713120,1.00272659,.00031787,1.8227,83.0197,6.8284,293.9074,0,U,35942,999,6120,0,-.266E-5,0
COMSATBW-1,2009-054B,2026-06-19T13:10:35.514624,1.00269002,.00028063,0.0529,159.8530,286.1358,82.4752,0,U,35943,999,6133,0,.19E-6,0
NSS-12,2009-058A,2026-06-19T13:08:50.682912,1.00272748,.00050563,0.0918,275.0174,143.0691,103.8871,0,U,36032,999,6094,0,.65E-6,0
THOR 6,2009-058B,2026-06-19T06:01:43.195296,1.00271520,.00016335,0.0242,99.0120,345.8921,272.1597,0,U,36033,999,6102,0,-.16E-6,0
INTELSAT 14 (IS-14),2009-064A,2026-06-19T04:06:28.375200,1.00271821,.0002337,0.0124,321.8072,124.6896,197.5268,0,U,36097,999,6062,0,-.28E-5,0
EUTELSAT 36B,2009-065A,2026-06-19T13:06:58.362048,1.00269089,.00055045,0.4979,81.1357,5.0932,68.7818,0,U,36101,999,6073,0,.106E-5,0
INTELSAT 15 (IS-15),2009-067A,2026-06-19T03:00:57.479328,1.00272203,.0002135,0.0159,340.9265,107.1363,309.6753,0,U,36106,999,4124,0,-.191E-5,0
WGS F3 (USA 211),2009-068A,2026-06-18T15:43:33.110976,1.00270012,.00002578,0.3242,85.6919,251.5107,35.5777,0,U,36108,999,4660,0,.58E-6,0
DIRECTV 12,2009-075A,2026-06-18T15:51:24.857568,1.00272181,.00003852,0.0434,170.9001,299.0990,292.0273,0,U,36131,999,4656,0,-.11E-5,0
BEIDOU-2 G1,2010-001A,2026-06-19T15:15:15.718176,1.00269410,.00022416,4.3000,60.4072,297.2013,279.5187,0,U,36287,999,6019,0,-.287E-5,0
SDO,2010-005A,2026-06-17T09:50:26.387232,1.00269958,.00017341,34.6527,86.3378,44.0102,180.8312,0,U,36395,999,6006,0,-.96E-6,0
INTELSAT 16 (IS-16),2010-006A,2026-06-19T05:49:13.773792,1.00272329,.00019692,0.0097,336.1585,125.2068,177.2051,0,U,36397,999,5967,0,-.251E-5,0
EWS-G2 (GOES 15),2010-008A,2026-06-19T13:10:43.002912,1.00266562,.00048917,1.2850,82.8099,42.1965,44.1162,0,U,36411,999,5966,0,.14E-6,0
ECHOSTAR 14,2010-010A,2026-06-19T11:34:38.788896,1.00270862,.0002429,0.0173,26.0367,71.8335,224.6016,0,U,36499,999,4657,0,-.6E-7,0
SES-1,2010-016A,2026-06-19T12:23:47.501664,1.00270874,.00026567,0.0292,300.1558,144.3787,268.1470,0,U,36516,999,5905,0,-.12E-5,0
